MALLIGYONG-1            
1 58400U 23179A   24160.62949497  .00008983  00000+0  40847-3 0  9995
2 58400  97.4048  47.6262 0001635 157.9084 202.2223 15.20960780 30427
